XCUBE-1                 
1 62400U 24247Z   26068.48297321  .00009773  00000+0  36224-3 0  9994
2 62400  44.9938 117.7807 0005235 331.1499  28.9094 15.27910558 67702
STARLINK-35721          
1 67046U 25294S   26068.92927442  .00027165  00000+0  99268-3 0  9993
2 67046  42.9958  36.9030 0000683 147.3179 212.7715 15.27591650 14834
