[{"OBJECT_NAME":"XCUBE-1","OBJECT_ID":"2024-247Z","EPOCH":"2026-03-09T11:35:28.885344","MEAN_MOTION":15.27910558,"ECCENTRICITY":0.00052355,"INCLINATION":44.9938,"RA_OF_ASC_NODE":117.7807,"ARG_OF_PERICENTER":331.1499,"MEAN_ANOMALY":28.9094,"EPHEMERIS_TYPE":0,"CLASSIFICATION_TYPE":"U","NORAD_CAT_ID":62400,"ELEMENT_SET_NO":999,"REV_AT_EPOCH":6770,"BSTAR":0.00036224252,"MEAN_MOTION_DOT":9.773e-5,"MEAN_MOTION_DDOT":0},{"OBJECT_NAME":"STARLINK-35721","OBJECT_ID":"2025-294S","EPOCH":"2026-03-09T22:18:09.310752","MEAN_MOTION":15.2759165,"ECCENTRICITY":6.833e-5,"INCLINATION":42.9958,"RA_OF_ASC_NODE":36.903,"ARG_OF_PERICENTER":147.3179,"MEAN_ANOMALY":212.7715,"EPHEMERIS_TYPE":0,"CLASSIFICATION_TYPE":"U","NORAD_CAT_ID":67046,"ELEMENT_SET_NO":999,"REV_AT_EPOCH":1483,"BSTAR":0.00099268294,"MEAN_MOTION_DOT":0.00027165,"MEAN_MOTION_DDOT":0}]
